CAS-2T & KS-1Q          
1 41847U 16066G   23038.18546971  .00002093  00000+0  32262-3 0  9991
2 41847  98.5214 107.3116 0361173 227.1642 129.8674 14.39118750328109
NAYIF-1 (EO-88)         
1 42017U 17008BX  23037.71315201  .00058706  00000+0  11460-2 0  9994
2 42017  97.2372 106.6078 0003947 119.6974 240.4669 15.47286447333114
ZHUHAI-1 02 (CAS-4B)    
1 42759U 17034B   23038.28008014  .00008344  00000+0  45759-3 0  9992
2 42759  43.0172 116.3646 0011504 334.5165  87.8188 15.14401964311922
ZHUHAI-1 01 (CAS-4A)    
1 42761U 17034D   23038.24182358  .00007424  00000+0  40700-3 0  9994
2 42761  43.0158 115.1777 0011751 336.5583 120.8733 15.14533545311926
MAX VALIER SAT          
1 42778U 17036P   23037.84978739  .00017712  00000+0  56613-3 0  9996
2 42778  97.1766  76.2033 0008822 200.9399 159.1484 15.32462652312722
RADFXSAT (FOX-1B)       
1 43017U 17073E   23037.94175895  .00006108  00000+0  44207-3 0  9990
2 43017  97.6498 287.4798 0242011 138.3058 223.6887 14.83716739281852
FOX-1D (AO-92)          
1 43137U 18004AC  23037.77124709  .00028254  00000+0  80065-3 0  9995
2 43137  97.3440 116.4022 0006059 246.9423 113.1182 15.36205462282220
DIWATA-2B               
1 43678U 18084H   23038.31580659  .00001425  00000+0  14363-3 0  9993
2 43678  97.9982 179.8934 0008761 226.6062 133.4426 14.92754798232883
ES'HAIL 2               
1 43700U 18090A   23038.09633000  .00000150  00000+0  00000+0 0  9993
2 43700   0.0069 133.2048 0002630 216.9734 207.2551  1.00274003 15628
FOX-1CLIFF (AO-95)      
1 43770U 18099N   23037.72748679  .00006761  00000+0  57609-3 0  9992
2 43770  97.5922 102.8135 0012946 201.8191 158.2482 14.98014014228061
ITASAT 1                
1 43786U 18099AE  23037.91157126  .00005144  00000+0  44024-3 0  9992
2 43786  97.5936 104.0168 0014329 197.2172 162.8567 14.97941594228131
JY1SAT (JO-97)          
1 43803U 18099AX  23038.16303281  .00006524  00000+0  54464-3 0  9997
2 43803  97.5898 104.1317 0013890 197.9184 162.1551 14.98812307228201
UWE-4                   
1 43880U 18111E   23037.71816658  .00006638  00000+0  53677-3 0  9995
2 43880  97.6550 304.9881 0012366 254.4195 105.5664 15.00054105224790
NEXUS (FO-99)           
1 43937U 19003F   23037.87251091  .00037816  00000+0  96727-3 0  9995
2 43937  97.1056  67.8487 0017902  37.8921 322.3582 15.39167850225914
PSAT2 (NO-104)          
1 44354U 19036R   23038.02983379  .00972524  49381-3  95155-3 0  9991
2 44354  28.5133 304.0203 0051401 179.0574 181.0145 16.07360067201313
JAISAT-1                
1 44419U 19038F   23037.94108637  .00024922  00000+0  10602-2 0  9995
2 44419  97.6641  16.1056 0018948  46.6247 313.6564 15.22839771198668
DUCHIFAT-3              
1 44854U 19089C   23037.73614934  .00007744  00000+0  56264-3 0  9991
2 44854  36.9626 149.4208 0008421 330.7951 183.3662 15.03452962173175
CAS-6 (TIANQIN 1)       
1 44881U 19093C   23038.08619507  .00001022  00000+0  13491-3 0  9994
2 44881  97.8735 118.7318 0015713 138.5608 221.6800 14.82107741169520
RS-44 & BREEZE-KM R/B   
1 44909U 19096E   23038.12854668  .00000027  00000+0  58186-4 0  9997
2 44909  82.5178  74.3677 0218355 130.8801 231.1447 12.79718165145579
ORBITAL FACTORY 2 (OF-2)
1 45113U 19071C   23038.18829152  .00221015  00000+0  15768-2 0  9993
2 45113  51.6317 328.9282 0000666   2.1762 357.9239 15.72575671169885
HUSKYSAT-1 (HO-107)     
1 45119U 19071J   23038.29299165  .00144910  00000+0  13715-2 0  9994
2 45119  51.6326 332.6068 0002063 329.1185  30.9689 15.65981391169833
BY70-2                  
1 45857U 20042B   23038.12674731  .00013521  00000+0  16168-2 0  9999
2 45857  97.9371 118.1060 0009706  76.5196 283.7250 14.84254406140202
SALSAT                  
1 46495U 20068K   23037.84549805  .00005473  00000+0  37871-3 0  9999
2 46495  97.7576 344.7439 0015336 195.7992 164.2758 15.06017746129445
BY70-3                  
1 46839U 20079N   23038.17999434  .00102391  00000+0  11340-2 0  9996
2 46839  97.1687 114.2400 0004133 207.3966 204.5661 15.62644452126581
RADFXSAT-2 (AO-109)     
1 47311U 21002C   23037.86471707  .00027887  00000+0  90908-3 0  9996
2 47311  60.6821 196.7439 0035986 109.2609 251.2380 15.31096840114271
UVSQ-SAT                
1 47438U 21006AB  23038.13403323  .00015072  00000+0  70985-3 0  9996
2 47438  97.4055  97.4041 0011047 172.2484 187.8924 15.19564403112869
DIY-1 (ARDUIQUBE)       
1 47963U 21022AH  23038.25638943  .00076408  00000+0  28978-2 0  9992
2 47963  97.5150 303.2370 0016087  49.9629 310.3018 15.26443994102575
XW-3 (CAS-9)            
1 50466U 21131B   23038.26524231  .00000706  00000+0  24475-3 0  9997
2 50466  98.5614 120.2013 0005169 159.2837 200.8560 14.38661583 58673
TEVEL-3                 
1 50988U 22002E   23038.17067481  .00014491  00000+0  69389-3 0  9992
2 50988  97.4531 106.4569 0008270 334.2139  78.3389 15.19024789 58988
TEVEL-8                 
1 50989U 22002F   23038.39593821  .00014480  00000+0  69439-3 0  9993
2 50989  97.4551 106.7252 0008197 333.6159 156.0955 15.18972789 59015
TEVEL-5                 
1 50998U 22002Q   23038.17701426  .00014943  00000+0  70275-3 0  9995
2 50998  97.4519 106.7178 0009594 328.4962  87.0640 15.19630658 59002
TEVEL-6                 
1 50999U 22002R   23038.17647230  .00014866  00000+0  69904-3 0  9999
2 50999  97.4521 106.7131 0009628 328.5948  90.5210 15.19635894 59007
TEVEL-1                 
1 51013U 22002AF  23038.17775929  .00014355  00000+0  68803-3 0  9994
2 51013  97.4522 106.4245 0008208 334.4672  81.2797 15.18993313 58987
TEVEL-7                 
1 51062U 22002CG  23038.18776537  .00014355  00000+0  68849-3 0  9995
2 51062  97.4545 106.4980 0008285 333.9705  87.2848 15.18970282 58981
TEVEL-4                 
1 51063U 22002CH  23038.19031854  .00014284  00000+0  68566-3 0  9990
2 51063  97.4546 106.4919 0008107 334.3657  86.3777 15.18944066 58981
TEVEL-2                 
1 51069U 22002CP  23038.17253212  .00014475  00000+0  69315-3 0  9993
2 51069  97.4536 106.4380 0008154 334.7300  77.7118 15.19023137 58980
GREENCUBE               
1 53106U 22080B   23034.19933790 -.00000003  00000+0  00000+0 0  9992
2 53106  70.1777   6.2677 0008922 216.5435 143.4616  6.42557193 13147
RS29S (SXC3-2110 CYCLO*)
1 53373U 22096D   23038.53936520  .00021338  00000+0  73603-3 0  9997
2 53373  97.4267 304.0986 0001570  74.1651  48.9788 15.30003254 27809
RS32S (SXC3-212 MONITO*)
1 53374U 22096E   23038.39288475  .00020117  00000+0  69767-3 0  9991
2 53374  97.4262 303.9542 0001611 105.0874 322.7936 15.29840513 27788
RS34S (SXC3-218 KUZBAS*)
1 53375U 22096F   23038.30638609  .00017451  00000+0  61920-3 0  9991
2 53375  97.4268 303.7950 0001378 103.0832  14.9164 15.29124258 27760
RS23S (SXC3-21 UTMN)    
1 53376U 22096G   23038.23376416  .00017940  00000+0  63298-3 0  9992
2 53376  97.4264 303.7417 0001524 106.0574  19.4138 15.29300925 27751
RS28S (SXC3-214 MIET-A*)
1 53377U 22096H   23038.37124189  .00017209  00000+0  61077-3 0  9997
2 53377  97.4274 303.8729 0001403 101.6278  34.5498 15.29118843 27773
RS26S (KAI-1)           
1 53378U 22096J   23038.38548369  .00014402  00000+0  51946-3 0  9995
2 53378  97.4272 303.8414 0001496 110.8289   0.9689 15.28629727 27775
RS19S (SXC3-219 ISOI)   
1 53381U 22096M   23038.50729458  .00017486  00000+0  61004-3 0  9994
2 53381  97.4271 304.1391 0004859 133.4701 352.2052 15.29666745 27805
RS21S (CUBESX-HSE-2)    
1 53383U 22096P   23038.37205447  .00017661  00000+0  61415-3 0  9999
2 53383  97.4272 304.0236 0005225 136.1390   1.3009 15.29769121 27780
RS30S (SXC3-217 SIREN)  
1 53384U 22096Q   23038.25236684  .00015254  00000+0  53789-3 0  9995
2 53384  97.4271 303.8688 0005102 135.8888 342.0258 15.29347429 27762
RS20S (GEOSCAN-EDELVEIS)
1 53385U 22096R   23038.48806753  .00022745  00000+0  75770-3 0  9998
2 53385  97.4260 304.3042 0005358 132.2049 332.1047 15.31108876 27843
RS33S (SXC3-215 VIZARD) 
1 53386U 22096S   23038.40216698  .00025273  00000+0  80965-3 0  9995
2 53386  97.4265 304.3979 0006113 136.7734 283.8294 15.32341701 27830
CAS-5A (FO-118)         
1 54684U 22167C   23038.32289698  .00010464  00000+0  64604-3 0  9995
2 54684  97.5401 177.3104 0015072  63.0269 327.0595 15.09985976  9053
CAS-10                  
1 54816U 21035C   23037.92124334  .00151163  00000+0  97149-3 0  9997
2 54816  41.4753 227.2116 0013555 282.0895  77.8431 15.74831718  7859
